LYNK TOWER 4            
1 55034U 23001AB  26068.67743801  .00009160  00000+0  30014-3 0  9997
2 55034  97.3324 128.5940 0010321 112.3386 247.8950 15.31819885176588
STARLINK-31032          
1 58535U 23192E   26068.27928558  .00002412  00000+0  93542-4 0  9996
2 58535  53.1623  64.5659 0001491  87.9905 272.1267 15.30202083125926
